ORBCOMM FM105           
1 41181U 15081C   26066.04601398  .00000308  00000+0  13085-3 0  9991
2 41181  47.0013  64.9472 0001117  27.5752 332.5188 14.45490869538772
ORBCOMM FM110           
1 41182U 15081D   26066.19192226  .00001086  00000+0  26670-3 0  9991
2 41182  47.0013 123.6524 0003495 308.7350  51.3223 14.58729615542738
ORBCOMM FM118           
1 41183U 15081E   26066.15801451  .00001081  00000+0  26559-3 0  9996
2 41183  47.0036 124.1275 0003932 278.1617  81.8823 14.58725720542833
ORBCOMM FM112           
1 41184U 15081F   26066.09248763  .00000898  00000+0  22687-3 0  9994
2 41184  47.0001  32.9374 0000942  78.0699 282.0292 14.58724180544046
ORBCOMM FM113           
1 41185U 15081G   26065.31627481  .00001011  00000+0  25070-3 0  9994
2 41185  47.0017  36.9745 0000572  85.9592 274.1359 14.58724225543919
ORBCOMM FM115           
1 41186U 15081H   26066.15254791  .00001030  00000+0  23249-3 0  9995
2 41186  46.9971 228.3208 0001346 217.5216 142.5578 14.63114093546279
ORBCOMM FM108           
1 41187U 15081J   26066.10081935  .00001012  00000+0  25092-3 0  9997
2 41187  47.0054 304.8070 0002151  80.8650 279.2479 14.58738171545178
ORBCOMM FM117           
1 41188U 15081K   26066.06635903  .00000986  00000+0  24555-3 0  9995
2 41188  47.0017 303.6376 0002508  90.8433 269.2740 14.58729755545213
ORBCOMM FM116           
1 41189U 15081L   26066.11565242  .00001038  00000+0  25654-3 0  9990
2 41189  47.0033  33.1858 0002572 303.9028  56.1612 14.58720455544039
