[{"OBJECT_NAME":"ORBCOMM FM105","OBJECT_ID":"2015-081C","EPOCH":"2026-03-07T01:06:15.607872","MEAN_MOTION":14.45490869,"ECCENTRICITY":0.0001117,"INCLINATION":47.0013,"RA_OF_ASC_NODE":64.9472,"ARG_OF_PERICENTER":27.5752,"MEAN_ANOMALY":332.5188,"EPHEMERIS_TYPE":0,"CLASSIFICATION_TYPE":"U","NORAD_CAT_ID":41181,"ELEMENT_SET_NO":999,"REV_AT_EPOCH":53877,"BSTAR":0.00013085,"MEAN_MOTION_DOT":3.08e-6,"MEAN_MOTION_DDOT":0},{"OBJECT_NAME":"ORBCOMM FM110","OBJECT_ID":"2015-081D","EPOCH":"2026-03-07T04:36:22.083264","MEAN_MOTION":14.58729615,"ECCENTRICITY":0.0003495,"INCLINATION":47.0013,"RA_OF_ASC_NODE":123.6524,"ARG_OF_PERICENTER":308.735,"MEAN_ANOMALY":51.3223,"EPHEMERIS_TYPE":0,"CLASSIFICATION_TYPE":"U","NORAD_CAT_ID":41182,"ELEMENT_SET_NO":999,"REV_AT_EPOCH":54273,"BSTAR":0.0002667,"MEAN_MOTION_DOT":1.086e-5,"MEAN_MOTION_DDOT":0},{"OBJECT_NAME":"ORBCOMM FM118","OBJECT_ID":"2015-081E","EPOCH":"2026-03-07T03:47:32.453664","MEAN_MOTION":14.5872572,"ECCENTRICITY":0.0003932,"INCLINATION":47.0036,"RA_OF_ASC_NODE":124.1275,"ARG_OF_PERICENTER":278.1617,"MEAN_ANOMALY":81.8823,"EPHEMERIS_TYPE":0,"CLASSIFICATION_TYPE":"U","NORAD_CAT_ID":41183,"ELEMENT_SET_NO":999,"REV_AT_EPOCH":54283,"BSTAR":0.00026559,"MEAN_MOTION_DOT":1.081e-5,"MEAN_MOTION_DDOT":0},{"OBJECT_NAME":"ORBCOMM FM112","OBJECT_ID":"2015-081F","EPOCH":"2026-03-07T02:13:10.931232","MEAN_MOTION":14.5872418,"ECCENTRICITY":9.42e-5,"INCLINATION":47.0001,"RA_OF_ASC_NODE":32.9374,"ARG_OF_PERICENTER":78.0699,"MEAN_ANOMALY":282.0292,"EPHEMERIS_TYPE":0,"CLASSIFICATION_TYPE":"U","NORAD_CAT_ID":41184,"ELEMENT_SET_NO":999,"REV_AT_EPOCH":54404,"BSTAR":0.00022687,"MEAN_MOTION_DOT":8.98e-6,"MEAN_MOTION_DDOT":0},{"OBJECT_NAME":"ORBCOMM FM113","OBJECT_ID":"2015-081G","EPOCH":"2026-03-06T07:35:26.143584","MEAN_MOTION":14.58724225,"ECCENTRICITY":5.721e-5,"INCLINATION":47.0017,"RA_OF_ASC_NODE":36.9745,"ARG_OF_PERICENTER":85.9592,"MEAN_ANOMALY":274.1359,"EPHEMERIS_TYPE":0,"CLASSIFICATION_TYPE":"U","NORAD_CAT_ID":41185,"ELEMENT_SET_NO":999,"REV_AT_EPOCH":54391,"BSTAR":0.00025070243,"MEAN_MOTION_DOT":1.011e-5,"MEAN_MOTION_DDOT":0},{"OBJECT_NAME":"ORBCOMM FM115","OBJECT_ID":"2015-081H","EPOCH":"2026-03-07T03:39:40.139424","MEAN_MOTION":14.63114093,"ECCENTRICITY":0.0001346,"INCLINATION":46.9971,"RA_OF_ASC_NODE":228.3208,"ARG_OF_PERICENTER":217.5216,"MEAN_ANOMALY":142.5578,"EPHEMERIS_TYPE":0,"CLASSIFICATION_TYPE":"U","NORAD_CAT_ID":41186,"ELEMENT_SET_NO":999,"REV_AT_EPOCH":54627,"BSTAR":0.00023249,"MEAN_MOTION_DOT":1.03e-5,"MEAN_MOTION_DDOT":0},{"OBJECT_NAME":"ORBCOMM FM108","OBJECT_ID":"2015-081J","EPOCH":"2026-03-07T02:25:10.791840","MEAN_MOTION":14.58738171,"ECCENTRICITY":0.0002151,"INCLINATION":47.0054,"RA_OF_ASC_NODE":304.807,"ARG_OF_PERICENTER":80.865,"MEAN_ANOMALY":279.2479,"EPHEMERIS_TYPE":0,"CLASSIFICATION_TYPE":"U","NORAD_CAT_ID":41187,"ELEMENT_SET_NO":999,"REV_AT_EPOCH":54517,"BSTAR":0.00025092,"MEAN_MOTION_DOT":1.012e-5,"MEAN_MOTION_DDOT":0},{"OBJECT_NAME":"ORBCOMM FM117","OBJECT_ID":"2015-081K","EPOCH":"2026-03-07T01:35:33.420192","MEAN_MOTION":14.58729755,"ECCENTRICITY":0.0002508,"INCLINATION":47.0017,"RA_OF_ASC_NODE":303.6376,"ARG_OF_PERICENTER":90.8433,"MEAN_ANOMALY":269.274,"EPHEMERIS_TYPE":0,"CLASSIFICATION_TYPE":"U","NORAD_CAT_ID":41188,"ELEMENT_SET_NO":999,"REV_AT_EPOCH":54521,"BSTAR":0.00024555,"MEAN_MOTION_DOT":9.86e-6,"MEAN_MOTION_DDOT":0},{"OBJECT_NAME":"ORBCOMM FM116","OBJECT_ID":"2015-081L","EPOCH":"2026-03-07T02:46:32.369088","MEAN_MOTION":14.58720455,"ECCENTRICITY":0.0002572,"INCLINATION":47.0033,"RA_OF_ASC_NODE":33.1858,"ARG_OF_PERICENTER":303.9028,"MEAN_ANOMALY":56.1612,"EPHEMERIS_TYPE":0,"CLASSIFICATION_TYPE":"U","NORAD_CAT_ID":41189,"ELEMENT_SET_NO":999,"REV_AT_EPOCH":54403,"BSTAR":0.00025654,"MEAN_MOTION_DOT":1.038e-5,"MEAN_MOTION_DDOT":0}]
